Address_ID,Address_1,Address_2,Country,City,State,Zip
1,0 Cherokee Point,PO Box 93674,United States,Lafayette,Louisiana,70593
2,83986 7th Junction,Apt 1789,United States,Atlanta,Georgia,30368
3,9022 Artisan Alley,9th Floor,United States,Chicago,Illinois,60609
4,95 Summer Ridge Lane,Room 1647,United States,Los Angeles,California,90040
5,7148 Everett Lane,12th Floor,United States,Salt Lake City,Utah,84140
6,78945 Florence Junction,PO Box 18550,United States,Roanoke,Virginia,24048
7,6 Dexter Hill,Suite 15,United States,Anaheim,California,92825
8,414 Hansons Lane,Room 2,United States,Chicago,Illinois,60657
9,327 Fordem Center,Apt 349,United States,Nashville,Tennessee,37210
10,3 Everett Center,Apt 881,United States,Tulsa,Oklahoma,74193
11,2473 Golf Course Avenue,PO Box 80343,United States,San Jose,California,95118
12,946 Brown Junction,Suite 62,United States,Newport News,Virginia,23605
13,064 Hallows Point,Suite 29,United States,Charlotte,North Carolina,28215
14,60754 Tomscot Trail,Apt 382,United States,New Haven,Connecticut,06505
15,01 Shopko Road,11th Floor,United States,Fort Lauderdale,Florida,33345
16,79563 Thompson Crossing,,United States,Aurora,Colorado,80015
17,43505 Tennessee Park,14th Floor,United States,Alexandria,Louisiana,71307
18,51 Goodland Trail,Room 219,United States,Indianapolis,Indiana,46226
19,14754 Eagle Crest Place,Suite 4,United States,Cleveland,Ohio,44130
20,6717 Golf Junction,11th Floor,United States,Norman,Oklahoma,73071
21,312 Tony Trail,Apt 1219,United States,San Francisco,California,94147
22,2650 Lake View Circle,PO Box 22002,United States,Boise,Idaho,83732
23,10625 Kennedy Plaza,Suite 89,United States,Saint Paul,Minnesota,55115
24,732 Melrose Center,PO Box 78559,United States,Los Angeles,California,90071
25,6 Express Center,Room 194,United States,Saint Louis,Missouri,63116
26,23593 Coolidge Lane,Suite 2,United States,Fort Pierce,Florida,34981
27,8019 Blaine Trail,Suite 48,United States,North Las Vegas,Nevada,89087
28,8997 Troy Plaza,Room 1717,United States,Jackson,Mississippi,39296
29,92545 Spohn Drive,3rd Floor,United States,Greensboro,North Carolina,27425
30,8515 Mcbride Park,18th Floor,United States,Memphis,Tennessee,38143
31,58 New Castle Parkway,Apt 1502,United States,Denver,Colorado,80209
32,398 Nelson Junction,Room 1827,United States,Los Angeles,California,90030
33,2725 Rowland Road,17th Floor,United States,New Orleans,Louisiana,70154
34,3570 Ridgeview Court,1st Floor,United States,Troy,Michigan,48098
35,9 Grover Drive,Room 691,United States,Houston,Texas,77281
36,7 Graceland Avenue,PO Box 66587,United States,San Bernardino,California,92405
37,8 Cherokee Junction,Room 12,United States,Huntington,West Virginia,25770
38,260 Truax Point,7th Floor,United States,Jamaica,New York,11436
39,594 Reinke Drive,Room 1598,United States,Pittsburgh,Pennsylvania,15230
40,998 Sommers Parkway,Suite 34,United States,Orange,California,92867
41,5346 Kropf Point,,United States,Fort Myers,Florida,33906
42,90 Sunfield Point,Room 450,United States,Frederick,Maryland,21705
43,56840 Becker Trail,PO Box 82139,United States,Meridian,Mississippi,39305
44,4588 Jay Lane,PO Box 97615,United States,Houston,Texas,77266
45,03399 Corry Circle,Suite 6,United States,Loretto,Minnesota,55598
46,78640 Ruskin Road,PO Box 68762,United States,Washington,District of Columbia,20546
47,374 Grasskamp Alley,PO Box 598,United States,Rochester,Minnesota,55905
48,36 Bonner Parkway,2nd Floor,United States,Rochester,New York,14619
49,051 Forest Run Drive,Room 460,United States,Albany,New York,12232
50,2203 Forest Dale Crossing,Room 1920,United States,Minneapolis,Minnesota,55412
51,88012 Bashford Place,PO Box 40235,United States,Sterling,Virginia,20167
52,66075 Cherokee Parkway,Apt 863,United States,Kansas City,Missouri,64109
53,321 Larry Trail,PO Box 90807,United States,Macon,Georgia,31205
54,0588 Superior Hill,6th Floor,United States,Topeka,Kansas,66611
55,70755 Loomis Center,Suite 53,United States,Memphis,Tennessee,38136
56,629 Cherokee Avenue,Room 1866,United States,Little Rock,Arkansas,72231
57,5 Blue Bill Park Crossing,Room 326,United States,Chicago,Illinois,60674
58,26 Vermont Avenue,Apt 986,United States,Kansas City,Kansas,66105
59,64932 Monterey Plaza,PO Box 12074,United States,Detroit,Michigan,48232
60,579 West Street,Apt 608,United States,San Antonio,Texas,78240
61,4435 Colorado Lane,Apt 310,United States,Austin,Texas,78754
62,4396 Badeau Crossing,Apt 1551,United States,Long Beach,California,90810
63,23621 Judy Center,PO Box 69710,United States,Berkeley,California,94705
64,94 Saint Paul Trail,,United States,Phoenix,Arizona,85030
65,6702 Carioca Center,Room 1899,United States,Miami,Florida,33196
66,441 Bluejay Alley,PO Box 57127,United States,Springfield,Ohio,45505
67,1 Kenwood Terrace,Room 1853,United States,Bethesda,Maryland,20892
68,7747 Brentwood Plaza,Suite 90,United States,Norwalk,Connecticut,06854
69,0327 Miller Road,Suite 56,United States,New York City,New York,10060
70,875 Fairview Avenue,Suite 49,United States,Salt Lake City,Utah,84145
71,65 Dryden Road,Room 1497,United States,Birmingham,Alabama,35279
72,53 Melby Hill,Apt 1074,United States,Washington,District of Columbia,56944
73,7581 Lighthouse Bay Place,Apt 1401,United States,Wilkes Barre,Pennsylvania,18768
74,77153 Debra Circle,PO Box 7776,United States,Marietta,Georgia,30061
75,8802 Dunning Junction,Room 1444,United States,Washington,District of Columbia,20397
76,20 Thierer Avenue,Room 18,United States,Louisville,Kentucky,40250
77,1 Eliot Street,PO Box 90088,United States,Montgomery,Alabama,36134
78,8603 Corben Lane,PO Box 81671,United States,Warren,Ohio,44485
79,831 Claremont Place,Apt 996,United States,San Antonio,Texas,78278
80,0 Center Alley,Suite 26,United States,Chula Vista,California,91913
81,08979 Thackeray Terrace,PO Box 64024,United States,Phoenix,Arizona,85099
82,438 Vermont Junction,Room 113,United States,Duluth,Georgia,30096
83,5860 Roxbury Hill,Room 203,United States,Davenport,Iowa,52804
84,301 Bobwhite Park,Apt 1543,United States,Tulsa,Oklahoma,74149
85,16376 Blue Bill Park Road,6th Floor,United States,Bethesda,Maryland,20892
86,173 Anniversary Parkway,Suite 48,United States,Oklahoma City,Oklahoma,73173
87,2 Eliot Point,3rd Floor,United States,Vancouver,Washington,98664
88,97727 Lake View Avenue,2nd Floor,United States,Albany,New York,12262
89,45460 Schmedeman Way,Suite 1,United States,Tulsa,Oklahoma,74184
90,09764 Waywood Place,Room 1140,United States,Greensboro,North Carolina,27455
91,20 Boyd Place,PO Box 28207,United States,Denver,Colorado,80241
92,26486 Talisman Lane,Room 1462,United States,Tulsa,Oklahoma,74103
93,505 Stuart Point,Apt 1621,United States,Van Nuys,California,91499
94,1346 Schiller Road,Suite 49,United States,Raleigh,North Carolina,27610
95,98787 Acker Trail,Room 1591,United States,Houston,Texas,77288
96,5552 Homewood Drive,Suite 40,United States,Sacramento,California,94280
97,476 Towne Pass,13th Floor,United States,Anchorage,Alaska,99522
98,74570 Elmside Crossing,PO Box 28848,United States,Silver Spring,Maryland,20910
99,7158 Spohn Circle,2nd Floor,United States,Cincinnati,Ohio,45238
100,44 Green Ridge Pass,13th Floor,United States,Little Rock,Arkansas,72204
101,122 Dexter Parkway,Suite 85,United States,Akron,Ohio,44321
102,310 Harbort Road,15th Floor,United States,Jackson,Mississippi,39204
103,0578 Hazelcrest Way,Suite 96,United States,Tallahassee,Florida,32304
104,356 Heath Circle,Room 67,United States,Memphis,Tennessee,38109
105,4 Karstens Center,Suite 70,United States,Miami,Florida,33283
106,28 Sommers Point,19th Floor,United States,Kansas City,Missouri,64136
107,6 Brown Center,7th Floor,United States,Inglewood,California,90310
108,7 Washington Place,Suite 8,United States,Miami,Florida,33153
109,5 Melody Trail,12th Floor,United States,New York City,New York,10014
110,9734 6th Place,Apt 413,United States,Portland,Oregon,97206
111,36 Chinook Plaza,13th Floor,United States,Baton Rouge,Louisiana,70820
112,8 Independence Hill,Room 1463,United States,Pasadena,California,91131
113,45 Hanover Hill,15th Floor,United States,Greensboro,North Carolina,27499
114,39480 Del Mar Avenue,19th Floor,United States,Anderson,South Carolina,29625
115,6 Lerdahl Way,20th Floor,United States,New York City,New York,10292
116,24628 Springs Way,Suite 16,United States,Evansville,Indiana,47705
117,84 Hagan Road,PO Box 6890,United States,Milwaukee,Wisconsin,53210
118,37 Dunning Road,PO Box 26556,United States,Stockton,California,95210
119,5 Red Cloud Circle,PO Box 84140,United States,Louisville,Kentucky,40225
120,6 Bellgrove Terrace,1st Floor,United States,Charlotte,North Carolina,28299
121,9455 Melby Trail,Apt 800,United States,Brooklyn,New York,11215
122,68 Oak Valley Drive,18th Floor,United States,Seattle,Washington,98115
123,5057 Rutledge Place,PO Box 39622,United States,Albany,Georgia,31704
124,4 Johnson Place,Room 18,United States,Minneapolis,Minnesota,55417
125,448 Summerview Avenue,Suite 69,United States,San Diego,California,92110
126,24 Anthes Crossing,Suite 95,United States,Oklahoma City,Oklahoma,73190
127,75174 Sloan Avenue,11th Floor,United States,Inglewood,California,90310
128,42 Ramsey Hill,Suite 18,United States,Arvada,Colorado,80005
129,36 Glendale Hill,Apt 934,United States,Colorado Springs,Colorado,80925
130,2 Emmet Circle,19th Floor,United States,Charlotte,North Carolina,28256
131,622 Pond Avenue,Room 1962,United States,Migrate,Kentucky,41905
132,93 Gale Street,Suite 85,United States,Joliet,Illinois,60435
133,3 Pepper Wood Way,Room 1596,United States,Roanoke,Virginia,24014
134,73 Fremont Avenue,1st Floor,United States,Denton,Texas,76205
135,690 Talisman Park,Suite 61,United States,Trenton,New Jersey,08608
136,0 Northridge Street,PO Box 9896,United States,Lancaster,Pennsylvania,17622
137,6 Myrtle Plaza,Suite 87,United States,South Bend,Indiana,46620
138,67785 Jackson Alley,Apt 1982,United States,Washington,District of Columbia,20078
139,5 Schlimgen Way,Room 196,United States,Dallas,Texas,75216
140,06543 Hoepker Hill,PO Box 27456,United States,New York City,New York,10110
141,21552 Charing Cross Crossing,Suite 4,United States,Ogden,Utah,84403
142,062 East Street,Suite 94,United States,Elizabeth,New Jersey,07208
143,83 Kinsman Hill,Room 440,United States,Las Cruces,New Mexico,88006
144,716 Kennedy Park,Suite 4,United States,Melbourne,Florida,32919
145,7006 Havey Hill,Apt 990,United States,Burbank,California,91520
146,14029 Sachs Way,Room 944,United States,Bryan,Texas,77806
147,373 Karstens Road,4th Floor,United States,Orlando,Florida,32808
148,2 Express Place,Suite 48,United States,Pueblo,Colorado,81010
149,06667 Esker Avenue,Room 1144,United States,Baltimore,Maryland,21290
150,5 Oxford Road,Suite 31,United States,Schaumburg,Illinois,60193
151,372 Meadow Ridge Trail,Suite 43,United States,Montgomery,Alabama,36119
152,2 Derek Way,Room 1442,United States,Los Angeles,California,90060
153,5 Bay Point,PO Box 98152,United States,El Paso,Texas,79977
154,75 Jenifer Terrace,Apt 1204,United States,Tulsa,Oklahoma,74126
155,7 Eastlawn Lane,Apt 1674,United States,Toledo,Ohio,43666
156,45061 Blue Bill Park Court,Room 906,United States,Norfolk,Virginia,23509
157,86 Debra Circle,Room 460,United States,Miami Beach,Florida,33141
158,06 School Road,Suite 59,United States,Brooksville,Florida,34605
159,86530 Bay Plaza,14th Floor,United States,Chicago,Illinois,60663
160,131 Manley Pass,Room 924,United States,Rockford,Illinois,61110
161,89 Longview Place,PO Box 10309,United States,Springfield,Illinois,62764
162,426 Clemons Point,Room 889,United States,San Diego,California,92160
163,1194 La Follette Junction,Suite 79,United States,Portland,Oregon,97271
164,776 Union Avenue,PO Box 20391,United States,Shreveport,Louisiana,71115
165,60023 5th Avenue,Room 917,United States,Lubbock,Texas,79415
166,5 Chinook Point,PO Box 63824,United States,Arlington,Virginia,22205
167,82678 Florence Court,Room 1766,United States,Jacksonville,Florida,32244
168,16670 Rutledge Alley,PO Box 99035,United States,Spring,Texas,77386
169,542 Grover Lane,9th Floor,United States,Fort Wayne,Indiana,46862
170,4 Straubel Place,Apt 530,United States,Oklahoma City,Oklahoma,73157
171,3440 Haas Terrace,PO Box 79858,United States,San Antonio,Texas,78220
172,25311 Superior Terrace,Apt 1198,United States,Dallas,Texas,75221
173,942 Norway Maple Lane,2nd Floor,United States,Hartford,Connecticut,06152
174,63585 Anderson Hill,Apt 701,United States,Hayward,California,94544
175,841 Vahlen Pass,Suite 36,United States,Saint Paul,Minnesota,55146
176,105 Rusk Alley,15th Floor,United States,Peoria,Illinois,61640
177,2 Nobel Crossing,PO Box 47180,United States,Dearborn,Michigan,48126
178,44 Ruskin Lane,6th Floor,United States,Houston,Texas,77255
179,5990 Longview Drive,Apt 380,United States,Raleigh,North Carolina,27690
180,7 Forest Plaza,Room 1432,United States,Charlotte,North Carolina,28278
181,03740 Delaware Trail,4th Floor,United States,Washington,District of Columbia,20210
182,820 Clove Pass,Suite 27,United States,Providence,Rhode Island,02905
183,636 Moulton Plaza,19th Floor,United States,Baltimore,Maryland,21211
184,892 Mesta Plaza,PO Box 79167,United States,Toledo,Ohio,43635
185,555 Amoth Terrace,Suite 20,United States,Davenport,Iowa,52809
186,46704 Farragut Pass,Room 181,United States,Memphis,Tennessee,38181
187,69 Sullivan Alley,Room 1825,United States,Mansfield,Ohio,44905
188,77199 Crowley Trail,Apt 1677,United States,Atlanta,Georgia,30358
189,42368 Forster Place,PO Box 39662,United States,Pompano Beach,Florida,33075
190,05596 Dryden Point,Room 728,United States,Boise,Idaho,83711
191,07579 Anzinger Center,Apt 1377,United States,Roanoke,Virginia,24034
192,73217 Fairview Junction,18th Floor,United States,Portland,Maine,04109
193,70 Sullivan Way,Room 628,United States,Richmond,Virginia,23277
194,21 Little Fleur Hill,Suite 55,United States,Washington,District of Columbia,20051
195,199 Esch Alley,Apt 527,United States,Miami,Florida,33124
196,7791 Talmadge Circle,PO Box 9806,United States,Fresno,California,93709
197,982 Cambridge Lane,Room 1165,United States,Chandler,Arizona,85246
198,958 Village Green Crossing,Room 1776,United States,New Brunswick,New Jersey,08922
199,4294 Oak Center,,United States,Richmond,Virginia,23285
200,217 Gulseth Pass,14th Floor,United States,Spokane,Washington,99260
201,1828 Carioca Center,Suite 80,United States,Atlanta,Georgia,30301
202,43393 Victoria Place,PO Box 83698,United States,Lexington,Kentucky,40524
203,5161 Roxbury Circle,Room 281,United States,Birmingham,Alabama,35225
204,18499 Linden Avenue,Suite 59,United States,Long Beach,California,90810
205,19895 Gina Lane,Room 1543,United States,Springfield,Ohio,45505
206,5486 Hollow Ridge Crossing,1st Floor,United States,Boston,Massachusetts,02109
207,3 Toban Drive,PO Box 66819,United States,Washington,District of Columbia,20442
208,3806 Packers Place,PO Box 9963,United States,Charlotte,North Carolina,28230
209,85365 Village Lane,16th Floor,United States,Los Angeles,California,90005
210,52874 3rd Terrace,Apt 1232,United States,Lexington,Kentucky,40581
211,5075 Gulseth Way,Room 40,United States,Little Rock,Arkansas,72222
212,96476 Judy Pass,PO Box 89843,United States,Knoxville,Tennessee,37939
213,860 Waubesa Hill,Suite 42,United States,Brooklyn,New York,11205
214,48 Comanche Pass,Suite 96,United States,Houston,Texas,77065
215,5581 Fallview Park,Apt 477,United States,Tulsa,Oklahoma,74116
216,93 Morningstar Center,11th Floor,United States,Ogden,Utah,84403
217,451 Milwaukee Circle,Apt 1250,United States,Anaheim,California,92812
218,9201 Little Fleur Point,Suite 95,United States,Hollywood,Florida,33023
219,4071 Lien Center,Room 1423,United States,Apache Junction,Arizona,85219
220,6945 Hoard Parkway,Room 1419,United States,Charleston,West Virginia,25305
221,78104 Jenifer Junction,Room 1345,United States,Fort Pierce,Florida,34949
222,27 Green Court,Apt 914,United States,Oklahoma City,Oklahoma,73114
223,1 3rd Drive,Apt 1306,United States,San Antonio,Texas,78210
224,8 Veith Point,Room 59,United States,Indianapolis,Indiana,46266
225,9 Forest Trail,1st Floor,United States,San Rafael,California,94913
226,7 Monica Hill,Room 321,United States,Santa Barbara,California,93106
227,8998 Lighthouse Bay Hill,Room 1180,United States,Bakersfield,California,93381
228,0742 Mcguire Alley,Apt 1469,United States,El Paso,Texas,88519
229,297 Johnson Drive,Room 310,United States,Oklahoma City,Oklahoma,73142
230,9 Norway Maple Road,13th Floor,United States,Milwaukee,Wisconsin,53205
231,81 International Street,1st Floor,United States,Madison,Wisconsin,53790
232,58319 Michigan Circle,4th Floor,United States,Springfield,Illinois,62794
233,0 American Ash Circle,Apt 1974,United States,Rochester,New York,14652
234,6106 Vermont Junction,Room 1639,United States,Minneapolis,Minnesota,55480
235,20 Sullivan Way,PO Box 62347,United States,Little Rock,Arkansas,72209
236,15 Commercial Alley,Room 1688,United States,Greenville,South Carolina,29605
237,494 Packers Point,Apt 190,United States,Washington,District of Columbia,20268
238,43 Randy Parkway,6th Floor,United States,Harrisburg,Pennsylvania,17121
239,53211 Mifflin Parkway,15th Floor,United States,Alexandria,Virginia,22309
240,31 Moose Point,PO Box 15638,United States,Washington,District of Columbia,56944
241,76852 Claremont Avenue,Room 1554,United States,Kansas City,Missouri,64142
242,95588 Eastlawn Drive,Apt 1043,United States,Wichita,Kansas,67260
243,4545 Arrowood Court,15th Floor,United States,Minneapolis,Minnesota,55417
244,07 Annamark Crossing,20th Floor,United States,Portsmouth,New Hampshire,00214
245,55 Forster Road,PO Box 86496,United States,Miami,Florida,33169
246,49 Sachtjen Place,Apt 689,United States,Scottsdale,Arizona,85271
247,409 Messerschmidt Parkway,Room 653,United States,Colorado Springs,Colorado,80951
248,81818 Mayer Crossing,Suite 21,United States,Houston,Texas,77218
249,60 Twin Pines Place,Room 13,United States,Philadelphia,Pennsylvania,19136
250,26230 Acker Lane,9th Floor,United States,Frankfort,Kentucky,40618
251,7983 Rutledge Trail,Room 587,United States,Santa Rosa,California,95405
252,96 Stone Corner Center,PO Box 50716,United States,Brooksville,Florida,34605
253,33 Merry Trail,PO Box 13984,United States,Shawnee Mission,Kansas,66276
254,9647 Raven Parkway,Apt 876,United States,Escondido,California,92030
255,5525 Schiller Drive,Room 904,United States,Huntsville,Texas,77343
256,1176 Lunder Park,Room 1377,United States,Rochester,New York,14614
257,27 Portage Plaza,1st Floor,United States,Inglewood,California,90398
258,5 Dovetail Avenue,PO Box 28099,United States,Saint Louis,Missouri,63131
259,66539 Clyde Gallagher Road,Apt 593,United States,London,Kentucky,40745
260,66 Starling Lane,4th Floor,United States,San Jose,California,95155
261,36 Clemons Crossing,Room 1376,United States,Chico,California,95973
262,3677 Village Green Point,Room 604,United States,Oklahoma City,Oklahoma,73129
263,51 Ludington Drive,2nd Floor,United States,Houston,Texas,77030
264,593 West Alley,Apt 173,United States,Wichita,Kansas,67215
265,13930 Armistice Center,Room 937,United States,Syracuse,New York,13205
266,10 Mifflin Drive,Suite 25,United States,Spring,Texas,77386
267,01203 Harper Street,PO Box 78600,United States,Norwalk,Connecticut,06859
268,4388 Erie Parkway,16th Floor,United States,Washington,District of Columbia,20409
269,9 Monument Circle,PO Box 68714,United States,Minneapolis,Minnesota,55480
270,064 6th Alley,PO Box 62605,United States,Meridian,Mississippi,39305
271,3056 Spenser Parkway,8th Floor,United States,Portland,Oregon,97211
272,93121 Twin Pines Center,12th Floor,United States,Memphis,Tennessee,38109
273,70 Oriole Park,Suite 16,United States,Cumming,Georgia,30130
274,4 Spohn Plaza,PO Box 92527,United States,Bakersfield,California,93311
275,36841 Towne Hill,Room 261,United States,Seattle,Washington,98166
276,1 Mallory Avenue,Suite 59,United States,Raleigh,North Carolina,27605
277,08 Thierer Point,Room 1238,United States,New Orleans,Louisiana,70183
278,023 Debra Avenue,Apt 1759,United States,Saint Louis,Missouri,63110
279,0 Onsgard Center,PO Box 11196,United States,Spokane,Washington,99220
280,569 Meadow Valley Crossing,Suite 77,United States,Portland,Oregon,97232
281,7 Boyd Park,,United States,El Paso,Texas,79968
282,9 Kingsford Avenue,2nd Floor,United States,Madison,Wisconsin,53716
283,83 Northwestern Plaza,Suite 82,United States,Richmond,Virginia,23242
284,52743 Forster Pass,PO Box 96875,United States,San Francisco,California,94137
285,4313 Riverside Trail,,United States,Newark,Delaware,19714
286,64187 Kropf Way,Apt 1125,United States,Roanoke,Virginia,24014
287,2543 Northfield Crossing,Suite 4,United States,Santa Clara,California,95054
288,60 Marquette Place,Apt 333,United States,San Antonio,Texas,78220
289,3 Lighthouse Bay Plaza,PO Box 31401,United States,Madison,Wisconsin,53790
290,50614 Straubel Crossing,15th Floor,United States,Springfield,Illinois,62764
291,51 Little Fleur Court,Room 1617,United States,Peoria,Illinois,61656
292,111 Dexter Way,Apt 355,United States,Chattanooga,Tennessee,37450
293,8246 Debra Hill,Room 1095,United States,Indianapolis,Indiana,46202
294,075 Steensland Park,PO Box 21761,United States,Knoxville,Tennessee,37931
295,5 Gale Center,Room 1862,United States,Staten Island,New York,10310
296,7 Cordelia Crossing,Apt 1459,United States,Baltimore,Maryland,21282
297,56959 Declaration Court,6th Floor,United States,Greenville,South Carolina,29605
298,1 Jenna Trail,Room 74,United States,El Paso,Texas,88530
299,5 Orin Way,3rd Floor,United States,San Antonio,Texas,78255
300,66 West Court,Room 637,United States,Little Rock,Arkansas,72209
301,3391 Acker Parkway,Suite 39,United States,Tulsa,Oklahoma,74170
302,1472 Rockefeller Way,Suite 69,United States,Chicago,Illinois,60604
303,98527 West Lane,Room 1761,United States,Trenton,New Jersey,08619
304,25 School Point,Apt 1642,United States,Bowie,Maryland,20719
305,7239 Shopko Park,Apt 734,United States,Chicago,Illinois,60681
306,946 Corscot Way,Apt 410,United States,Denver,Colorado,80204
307,90 Meadow Ridge Junction,Apt 1936,United States,Cedar Rapids,Iowa,52405
308,4 Armistice Parkway,,United States,Bethlehem,Pennsylvania,18018
309,6 Lotheville Avenue,Apt 6,United States,Birmingham,Alabama,35242
310,8 Tennyson Crossing,Apt 1458,United States,Buffalo,New York,14205
311,25483 Esker Drive,,United States,Sacramento,California,94207
312,9313 New Castle Junction,Apt 729,United States,Phoenix,Arizona,85099
313,94 Chinook Circle,10th Floor,United States,Madison,Wisconsin,53785
314,33 Monument Plaza,3rd Floor,United States,Flint,Michigan,48555
315,9532 Lillian Parkway,Apt 496,United States,New York City,New York,10170
316,10 Banding Point,PO Box 99648,United States,Richmond,Virginia,23203
317,98 Portage Circle,Room 336,United States,Winston Salem,North Carolina,27157
318,9048 Pine View Center,Apt 1916,United States,Greenville,South Carolina,29605
319,5 Morningstar Center,Room 630,United States,Topeka,Kansas,66606
320,86087 Weeping Birch Avenue,Apt 1287,United States,Spring,Texas,77388
321,34278 Kings Center,PO Box 92849,United States,Monroe,Louisiana,71213
322,11 Red Cloud Circle,PO Box 45112,United States,Saint Louis,Missouri,63196
323,512 Londonderry Center,Apt 938,United States,Austin,Texas,78715
324,066 John Wall Park,Room 1266,United States,Pensacola,Florida,32505
325,0 Killdeer Alley,PO Box 28616,United States,Sacramento,California,94273
326,5871 Fremont Point,Apt 365,United States,Stamford,Connecticut,06905
327,25 Monterey Center,PO Box 58539,United States,Escondido,California,92030
328,5558 Crest Line Hill,Suite 88,United States,Saint Cloud,Minnesota,56398
329,196 Jenna Road,13th Floor,United States,Utica,New York,13505
330,94 Hoepker Pass,PO Box 9742,United States,Dallas,Texas,75287
331,7 Evergreen Point,10th Floor,United States,Newark,Delaware,19725
332,29 Marquette Street,12th Floor,United States,Honolulu,Hawaii,96810
333,5 Sundown Hill,Apt 177,United States,Trenton,New Jersey,08619
334,39025 Service Center,,United States,Spokane,Washington,99215
335,1 Upham Road,Room 663,United States,Kansas City,Kansas,66160
336,0964 Hoepker Drive,Room 1564,United States,Charlottesville,Virginia,22908
337,40 Hoffman Lane,,United States,Tallahassee,Florida,32314
338,60 Bluestem Crossing,18th Floor,United States,Saint Louis,Missouri,63150
339,7093 Jay Plaza,13th Floor,United States,Reading,Pennsylvania,19605
340,165 Golden Leaf Road,18th Floor,United States,Grand Rapids,Michigan,49505
341,8335 Oak Point,PO Box 22143,United States,Modesto,California,95397
342,3 Schurz Point,5th Floor,United States,Washington,District of Columbia,20470
343,9 Grayhawk Drive,Room 566,United States,Norcross,Georgia,30092
344,3501 Brentwood Junction,PO Box 63010,United States,Baton Rouge,Louisiana,70836
345,54204 Mandrake Hill,18th Floor,United States,Trenton,New Jersey,08695
346,02 Lunder Lane,PO Box 21548,United States,Norfolk,Virginia,23504
347,0164 Arrowood Trail,Suite 1,United States,Charleston,South Carolina,29411
348,787 Wayridge Park,PO Box 12479,United States,Garland,Texas,75049
349,30426 Mcbride Way,Apt 1694,United States,Nashville,Tennessee,37228
350,507 Randy Hill,Apt 1274,United States,Norfolk,Virginia,23504
351,5 Atwood Place,PO Box 37889,United States,Mesa,Arizona,85210
352,58 Porter Junction,Suite 55,United States,Tulsa,Oklahoma,74156
353,50 Chinook Lane,Room 1161,United States,San Francisco,California,94154
354,95 Carpenter Place,Apt 156,United States,Fort Wayne,Indiana,46896
355,47856 Dovetail Park,Room 952,United States,Birmingham,Alabama,35215
356,65 Autumn Leaf Terrace,14th Floor,United States,Maple Plain,Minnesota,55579
357,05813 Waubesa Place,Suite 77,United States,Buffalo,New York,14269
358,6 Bluestem Lane,Room 567,United States,Topeka,Kansas,66642
359,5685 Kensington Pass,Room 1712,United States,Albany,Georgia,31704
360,7 Forest Dale Court,2nd Floor,United States,Seattle,Washington,98148
361,8 1st Road,Suite 36,United States,Conroe,Texas,77305
362,60 Old Shore Circle,Suite 76,United States,Bronx,New York,10464
363,3 Redwing Street,19th Floor,United States,Boston,Massachusetts,02283
364,6 Macpherson Plaza,Suite 92,United States,Flint,Michigan,48505
365,311 Dunning Point,Room 488,United States,Spartanburg,South Carolina,29319
366,607 Express Hill,,United States,Orlando,Florida,32803
367,86804 Cordelia Lane,8th Floor,United States,Tulsa,Oklahoma,74133
368,1 Ramsey Hill,Apt 606,United States,Corpus Christi,Texas,78475
369,41 Welch Way,Apt 1826,United States,Naples,Florida,34108
370,18 Karstens Hill,4th Floor,United States,Jamaica,New York,11447
371,424 Thierer Terrace,5th Floor,United States,Denver,Colorado,80241
372,4 Banding Terrace,2nd Floor,United States,Dallas,Texas,75287
373,8117 Mallard Trail,Room 138,United States,Miami,Florida,33185
374,9480 Morning Road,Room 1100,United States,San Antonio,Texas,78230
375,7 Arkansas Crossing,Room 1021,United States,Oklahoma City,Oklahoma,73152
376,9976 5th Trail,Room 530,United States,Canton,Ohio,44720
377,7178 Warbler Pass,Apt 263,United States,Syracuse,New York,13251
378,41755 Sherman Place,Apt 1258,United States,Fort Smith,Arkansas,72905
379,34 Menomonie Center,Apt 1085,United States,Lincoln,Nebraska,68583
380,665 Dexter Junction,PO Box 79892,United States,Denton,Texas,76210
381,9594 Harbort Alley,Room 901,United States,Peoria,Illinois,61656
382,150 Westport Pass,14th Floor,United States,Seminole,Florida,34642
383,29341 Stone Corner Center,Suite 10,United States,Pocatello,Idaho,83206
384,2052 Russell Road,Apt 1397,United States,Duluth,Georgia,30195
385,827 Everett Crossing,Suite 36,United States,Kansas City,Missouri,64199
386,2617 Sherman Alley,Apt 1996,United States,Temple,Texas,76505
387,32316 Prairieview Hill,Room 593,United States,Omaha,Nebraska,68105
388,3 Maywood Circle,Apt 1106,United States,Oakland,California,94660
389,9 Derek Place,9th Floor,United States,Shawnee Mission,Kansas,66215
390,89658 Sutteridge Plaza,PO Box 15264,United States,Mc Keesport,Pennsylvania,15134
391,04496 Melvin Point,Room 929,United States,Hollywood,Florida,33028
392,92848 Calypso Road,Apt 450,United States,Las Vegas,Nevada,89166
393,19144 Knutson Place,Apt 883,United States,Arlington,Texas,76011
394,1 Onsgard Parkway,Suite 62,United States,Atlanta,Georgia,30375
395,3 Clove Court,Apt 1422,United States,Philadelphia,Pennsylvania,19141
396,5 Commercial Place,Room 1983,United States,New Haven,Connecticut,06510
397,7 Texas Road,Room 1786,United States,Anaheim,California,92812
398,9 Bunker Hill Circle,Apt 906,United States,San Antonio,Texas,78240
399,191 East Park,Suite 9,United States,Oklahoma City,Oklahoma,73119
400,3 Eggendart Road,Apt 487,United States,Irvine,California,92619
401,50 Burning Wood Plaza,Room 531,United States,Pueblo,Colorado,81005
402,2 Elmside Point,Suite 48,United States,Pensacola,Florida,32505
403,81 Huxley Crossing,PO Box 69182,United States,Colorado Springs,Colorado,80920
404,9922 Luster Junction,3rd Floor,United States,Baltimore,Maryland,21275
405,6 Charing Cross Parkway,PO Box 11884,United States,Scranton,Pennsylvania,18505
406,4 Grayhawk Terrace,Room 1636,United States,Detroit,Michigan,48211
407,4633 Lake View Pass,3rd Floor,United States,Saint Louis,Missouri,63180
408,16485 Pierstorff Way,Suite 11,United States,Miami,Florida,33283
409,7252 Buena Vista Avenue,Apt 329,United States,Youngstown,Ohio,44511
410,112 Grover Court,Room 1027,United States,Fairfield,Connecticut,06825
411,86 Logan Court,Suite 57,United States,Miami,Florida,33147
412,60 Swallow Pass,Room 27,United States,Scranton,Pennsylvania,18514
413,946 Kenwood Plaza,Suite 31,United States,Jamaica,New York,11431
414,9814 Westport Street,PO Box 99102,United States,Prescott,Arizona,86305
415,24162 Fairfield Circle,Room 1757,United States,Port Saint Lucie,Florida,34985
416,089 Knutson Park,Room 90,United States,Chicago,Illinois,60652
417,34555 Lawn Center,Suite 52,United States,Clearwater,Florida,34629
418,4006 Gateway Avenue,PO Box 27568,United States,Albany,New York,12210
419,6 Sage Pass,Room 913,United States,Flint,Michigan,48555
420,858 Ronald Regan Crossing,Suite 43,United States,Des Moines,Iowa,50335
421,09 Northfield Crossing,Suite 86,United States,Fort Lauderdale,Florida,33320
422,00392 Briar Crest Road,Suite 66,United States,Daytona Beach,Florida,32128
423,0 Sachs Avenue,7th Floor,United States,Miami,Florida,33129
424,39 Trailsway Avenue,13th Floor,United States,Reno,Nevada,89510
425,60705 International Point,Apt 1438,United States,Washington,District of Columbia,20041
426,1 Sherman Crossing,Room 1832,United States,Minneapolis,Minnesota,55446
427,874 Fuller Crossing,Room 1127,United States,Staten Island,New York,10310
428,05 Vidon Park,PO Box 11677,United States,Philadelphia,Pennsylvania,19131
429,10156 Oneill Pass,Suite 63,United States,Long Beach,California,90831
430,2767 Maywood Crossing,Suite 65,United States,Little Rock,Arkansas,72231
431,603 Center Park,PO Box 91701,United States,Lubbock,Texas,79452
432,710 Thierer Terrace,Suite 19,United States,Winston Salem,North Carolina,27150
433,35 Holy Cross Lane,PO Box 94927,United States,Lafayette,Louisiana,70505
434,248 Coolidge Parkway,Suite 54,United States,Brooklyn,New York,11247
435,51769 Forster Drive,7th Floor,United States,El Paso,Texas,88530
436,1398 Butterfield Court,Suite 84,United States,Warren,Ohio,44485
437,253 Blaine Lane,Room 1891,United States,Washington,District of Columbia,20220
438,665 Clyde Gallagher Terrace,Room 1643,United States,Providence,Rhode Island,02905
439,8875 Fremont Place,Apt 525,United States,Houston,Texas,77240
440,44 Gulseth Terrace,PO Box 69860,United States,Dayton,Ohio,45426
441,1 Vera Center,Room 269,United States,Johnstown,Pennsylvania,15906
442,0 Rieder Pass,Apt 1109,United States,Washington,District of Columbia,20051
443,9868 Esker Avenue,Room 1944,United States,San Diego,California,92121
444,64 Ruskin Crossing,8th Floor,United States,Santa Fe,New Mexico,87592
445,61219 Mifflin Plaza,PO Box 67273,United States,Tulsa,Oklahoma,74116
446,7975 Chinook Junction,2nd Floor,United States,Moreno Valley,California,92555
447,7373 Fairfield Plaza,Apt 1501,United States,Phoenix,Arizona,85072
448,9 Bluejay Crossing,6th Floor,United States,Springfield,Missouri,65810
449,8969 Katie Pass,Suite 26,United States,El Paso,Texas,88574
450,0 Red Cloud Alley,PO Box 84669,United States,Salem,Oregon,97306
451,141 Northwestern Plaza,Apt 741,United States,New York City,New York,10175
452,2 Lunder Point,Room 1781,United States,Brooklyn,New York,11205
453,9912 Vernon Plaza,18th Floor,United States,New York City,New York,10155
454,38 Farmco Junction,Suite 49,United States,Waterloo,Iowa,50706
455,1723 Armistice Way,Apt 1342,United States,San Diego,California,92145
456,431 Elka Road,Suite 56,United States,Sioux City,Iowa,51110
457,0058 Coleman Terrace,20th Floor,United States,El Paso,Texas,88569
458,6 Maywood Road,PO Box 27113,United States,Salt Lake City,Utah,84189
459,25320 Lyons Circle,14th Floor,United States,Tacoma,Washington,98405
460,729 Monica Trail,20th Floor,United States,Alexandria,Virginia,22301
461,3435 Green Ridge Center,Suite 33,United States,Ventura,California,93005
462,54 John Wall Circle,PO Box 96926,United States,Wichita,Kansas,67230
463,9208 Fairview Lane,Suite 27,United States,New Orleans,Louisiana,70187
464,53548 Talmadge Crossing,Room 1655,United States,Santa Fe,New Mexico,87505
465,77975 Schlimgen Plaza,Apt 1692,United States,Montgomery,Alabama,36119
466,7 Bowman Center,PO Box 42884,United States,Tallahassee,Florida,32309
467,57 Moulton Road,PO Box 10667,United States,Tacoma,Washington,98442
468,811 Milwaukee Way,Suite 33,United States,Detroit,Michigan,48211
469,95 Crescent Oaks Plaza,17th Floor,United States,Miami,Florida,33134
470,6001 Mendota Center,PO Box 39155,United States,Sacramento,California,94237
471,21047 Sage Circle,PO Box 7559,United States,Dallas,Texas,75287
472,24704 Moland Junction,Room 1384,United States,Vancouver,Washington,98687
473,95504 Spenser Road,Apt 965,United States,Edmond,Oklahoma,73034
474,9 Memorial Point,13th Floor,United States,Washington,District of Columbia,20430
475,99 Shelley Plaza,PO Box 78089,United States,Bradenton,Florida,34205
476,63796 Graceland Parkway,Apt 559,United States,Edmond,Oklahoma,73034
477,9541 Golden Leaf Park,14th Floor,United States,Orlando,Florida,32854
478,6 Maple Way,Apt 1167,United States,Denver,Colorado,80291
479,35 Forest Dale Terrace,PO Box 97945,United States,Huntington,West Virginia,25711
480,43 Pennsylvania Trail,Suite 5,United States,Florence,South Carolina,29505
481,44196 Lawn Lane,Apt 72,United States,Visalia,California,93291
482,7352 Continental Lane,10th Floor,United States,Lancaster,Pennsylvania,17622
483,81150 Farmco Street,9th Floor,United States,Washington,District of Columbia,20231
484,788 Sommers Place,Room 1929,United States,Wilmington,Delaware,19892
485,93553 American Ash Circle,PO Box 28790,United States,Cincinnati,Ohio,45271
486,5 Anderson Place,Apt 898,United States,Birmingham,Alabama,35242
487,94322 Mariners Cove Road,Apt 455,United States,Alexandria,Virginia,22333
488,218 Village Circle,PO Box 86392,United States,New Orleans,Louisiana,70179
489,52541 Morningstar Road,Apt 1898,United States,Omaha,Nebraska,68124
490,10 Annamark Crossing,Apt 994,United States,Detroit,Michigan,48258
491,70683 Farragut Trail,Suite 22,United States,Saint Paul,Minnesota,55188
492,56847 Golf Crossing,Suite 21,United States,Seattle,Washington,98148
493,94 Beilfuss Crossing,Room 1555,United States,Pasadena,California,91117
494,69874 Hazelcrest Junction,Apt 1949,United States,Greensboro,North Carolina,27404
495,335 Elmside Crossing,Suite 18,United States,Oklahoma City,Oklahoma,73135
496,8 Moose Trail,3rd Floor,United States,Akron,Ohio,44310
497,61049 Southridge Pass,PO Box 86706,United States,Dallas,Texas,75216
498,0607 Anthes Point,Apt 1742,United States,Savannah,Georgia,31405
499,6988 Rutledge Way,Suite 44,United States,Los Angeles,California,90035
500,580 Stang Trail,Apt 1715,United States,Northridge,California,91328
501,204 Loeprich Place,Apt 1332,United States,Gainesville,Florida,32605
502,05058 East Drive,Room 1663,United States,Vancouver,Washington,98682
503,92638 Meadow Ridge Place,8th Floor,United States,Fort Worth,Texas,76147
504,11569 Schmedeman Trail,13th Floor,United States,Des Moines,Iowa,50310
505,034 Di Loreto Center,Room 1224,United States,Denver,Colorado,80255
506,03145 Gateway Street,PO Box 82552,United States,Humble,Texas,77346
507,9105 Fordem Junction,14th Floor,United States,Fort Myers,Florida,33906
508,186 Spohn Center,3rd Floor,United States,Amarillo,Texas,79159
509,8 Thompson Court,1st Floor,United States,Staten Island,New York,10305
510,9759 Comanche Crossing,,United States,Colorado Springs,Colorado,80945
511,267 Calypso Lane,Room 463,United States,Melbourne,Florida,32919
512,71 Shasta Center,Suite 58,United States,Burbank,California,91520
513,0 Lake View Park,5th Floor,United States,Pittsburgh,Pennsylvania,15240
514,3 Aberg Lane,PO Box 83219,United States,Rochester,New York,14614
515,93419 Pearson Court,PO Box 73856,United States,Tulsa,Oklahoma,74170
516,65229 Hanover Drive,10th Floor,United States,Sacramento,California,95838
517,5 Mccormick Point,Suite 78,United States,Oakland,California,94660
518,212 Barby Trail,PO Box 57843,United States,Fort Myers,Florida,33913
519,585 Washington Trail,Apt 399,United States,Hartford,Connecticut,06183
520,6 Dapin Alley,Apt 1598,United States,Texarkana,Texas,75507
521,82 Warbler Center,Apt 461,United States,Kansas City,Missouri,64136
522,08608 Forest Run Way,Apt 1129,United States,Orlando,Florida,32808
523,60460 Sheridan Road,Apt 882,United States,Houston,Texas,77035
524,47 Brown Drive,PO Box 98635,United States,Boise,Idaho,83732
525,89458 Raven Road,Apt 769,United States,Evansville,Indiana,47732
526,0574 Crowley Trail,PO Box 6500,United States,Camden,New Jersey,08104
527,44835 Forster Place,Apt 651,United States,Lubbock,Texas,79452
528,54 Melvin Pass,Apt 1134,United States,Houston,Texas,77095
529,972 Anthes Road,Room 1396,United States,Macon,Georgia,31217
530,81390 School Center,Apt 1944,United States,Panama City,Florida,32405
531,6 5th Trail,Apt 479,United States,Modesto,California,95397
532,5 Saint Paul Pass,12th Floor,United States,El Paso,Texas,79945
533,286 Bowman Alley,2nd Floor,United States,Brooklyn,New York,11220
534,99 Village Point,Suite 34,United States,Buffalo,New York,14225
535,485 Hoepker Pass,Apt 1283,United States,Minneapolis,Minnesota,55407
536,680 Glendale Center,PO Box 50097,United States,Philadelphia,Pennsylvania,19109
537,790 Schlimgen Circle,Suite 6,United States,Miami,Florida,33180
538,4 Kennedy Lane,Apt 1705,United States,Staten Island,New York,10305
539,1 Hauk Drive,Apt 1953,United States,Houston,Texas,77240
540,40 Bay Plaza,6th Floor,United States,Gilbert,Arizona,85297
541,686 Gina Lane,,United States,Scranton,Pennsylvania,18505
542,0 Hudson Park,Apt 368,United States,Fresno,California,93721
543,2432 Buhler Street,8th Floor,United States,Los Angeles,California,90005
544,229 Hollow Ridge Park,PO Box 54864,United States,Santa Fe,New Mexico,87505
545,5 Fieldstone Plaza,Apt 902,United States,Huntsville,Alabama,35895
546,1 Carpenter Crossing,PO Box 51365,United States,Tallahassee,Florida,32304
547,6 Bunting Terrace,PO Box 73043,United States,Philadelphia,Pennsylvania,19115
548,3 Haas Crossing,Suite 8,United States,Pittsburgh,Pennsylvania,15220
549,90256 Pankratz Parkway,PO Box 40792,United States,Kansas City,Missouri,64144
550,44 Commercial Drive,Room 1914,United States,Boise,Idaho,83705
551,0902 Brickson Park Terrace,Room 1658,United States,Mesquite,Texas,75185
552,15 Texas Terrace,Suite 73,United States,Huntsville,Alabama,35815
553,022 New Castle Street,14th Floor,United States,Huntington,West Virginia,25775
554,9 Southridge Trail,Suite 97,United States,Anchorage,Alaska,99517
555,6 Kennedy Parkway,Apt 1712,United States,Hagerstown,Maryland,21747
556,59568 Miller Parkway,Apt 739,United States,Eugene,Oregon,97405
557,55 Pawling Park,PO Box 34530,United States,Ridgely,Maryland,21684
558,5513 Dapin Center,Apt 680,United States,Houston,Texas,77255
559,06 Sloan Alley,,United States,San Antonio,Texas,78285
560,628 Leroy Court,Room 172,United States,Dallas,Texas,75358
561,1 Spohn Crossing,20th Floor,United States,Sacramento,California,94257
562,5 Stoughton Point,PO Box 21965,United States,Annapolis,Maryland,21405
563,80 Petterle Circle,Suite 3,United States,Huntsville,Alabama,35895
564,94986 Goodland Junction,PO Box 50638,United States,Tacoma,Washington,98405
565,8 Petterle Hill,4th Floor,United States,Arlington,Texas,76004
566,0 Eagan Park,Room 1510,United States,Utica,New York,13505
567,9175 Kenwood Lane,Suite 9,United States,New York City,New York,10099
568,716 Fremont Way,PO Box 70621,United States,Louisville,Kentucky,40220
569,60641 Pawling Street,PO Box 96769,United States,Nashville,Tennessee,37220
570,23776 Thompson Court,Room 1779,United States,Los Angeles,California,90030
571,6 Declaration Place,PO Box 27541,United States,Ann Arbor,Michigan,48107
572,45 Hagan Point,Room 1560,United States,Baltimore,Maryland,21281
573,8 Gerald Road,Apt 1281,United States,Oklahoma City,Oklahoma,73179
574,02058 Maywood Pass,19th Floor,United States,Sacramento,California,94230
575,7 Dovetail Hill,Suite 67,United States,Houston,Texas,77050
576,18 Rockefeller Crossing,Apt 1308,United States,Chattanooga,Tennessee,37410
577,592 Ohio Drive,Apt 951,United States,Akron,Ohio,44305
578,5 Beilfuss Point,Apt 1093,United States,Pensacola,Florida,32526
579,66 Waxwing Point,Suite 28,United States,Houston,Texas,77090
580,9273 Annamark Center,5th Floor,United States,Green Bay,Wisconsin,54313
581,0 Laurel Pass,PO Box 20618,United States,Lynn,Massachusetts,01905
582,40 Hagan Parkway,PO Box 3952,United States,San Antonio,Texas,78291
583,55 Jana Alley,Suite 7,United States,Dallas,Texas,75277
584,483 8th Terrace,13th Floor,United States,Seattle,Washington,98121
585,7 Service Alley,,United States,Salt Lake City,Utah,84130
586,07262 Dakota Terrace,Apt 1547,United States,Colorado Springs,Colorado,80905
587,852 Sutteridge Crossing,Suite 93,United States,Houston,Texas,77035
588,800 Delladonna Pass,Apt 473,United States,Yakima,Washington,98907
589,94 Buhler Trail,PO Box 37154,United States,Fresno,California,93715
590,48913 Stone Corner Hill,PO Box 63661,United States,Flint,Michigan,48555
591,194 Mayer Circle,PO Box 17062,United States,Sioux City,Iowa,51110
592,5401 Morningstar Hill,Apt 417,United States,Rochester,New York,14639
593,67682 Dahle Parkway,2nd Floor,United States,Spring,Texas,77386
594,05 Esch Terrace,Apt 1254,United States,Denver,Colorado,80279
595,1529 Di Loreto Road,10th Floor,United States,Jacksonville,Florida,32215
596,00254 Maple Plaza,Room 1349,United States,Albuquerque,New Mexico,87105
597,5200 Caliangt Terrace,4th Floor,United States,Hartford,Connecticut,06105
598,92 Carberry Pass,Suite 81,United States,Tulsa,Oklahoma,74170
599,822 Bayside Lane,19th Floor,United States,Colorado Springs,Colorado,80930
600,9 Mallard Way,Suite 71,United States,Silver Spring,Maryland,20910
601,7 Corry Junction,Suite 65,United States,Phoenix,Arizona,85005
602,6 Shelley Park,Room 1464,United States,Charleston,West Virginia,25356
603,64 Green Ridge Terrace,Apt 1367,United States,Saint Paul,Minnesota,55108
604,99 6th Way,Apt 993,United States,Champaign,Illinois,61825
605,595 Troy Junction,14th Floor,United States,Seattle,Washington,98115
606,94772 Grim Park,Suite 71,United States,Phoenix,Arizona,85062
607,590 Barby Drive,Apt 1443,United States,Seattle,Washington,98195
608,276 Kipling Lane,4th Floor,United States,Lincoln,Nebraska,68517
609,2876 Hoepker Plaza,Suite 90,United States,San Francisco,California,94126
610,73556 Magdeline Road,12th Floor,United States,Los Angeles,California,90087
611,466 Duke Street,2nd Floor,United States,Midland,Texas,79710
612,4642 Saint Paul Pass,PO Box 61135,United States,Wichita,Kansas,67215
613,8 Stuart Terrace,4th Floor,United States,Dayton,Ohio,45454
614,70 Elmside Circle,PO Box 24252,United States,Austin,Texas,78778
615,3 Buell Drive,19th Floor,United States,Washington,District of Columbia,20503
616,7 Crownhardt Park,Suite 74,United States,El Paso,Texas,88546
617,20068 Crownhardt Street,Suite 96,United States,Tampa,Florida,33633
618,6097 Ohio Hill,Suite 58,United States,Richmond,Virginia,23213
619,4 Mandrake Court,PO Box 86556,United States,Washington,District of Columbia,20551
620,1092 Menomonie Drive,11th Floor,United States,Lubbock,Texas,79452
621,9 Jay Alley,Suite 48,United States,Huntington Beach,California,92648
622,71 Red Cloud Street,Suite 72,United States,Anniston,Alabama,36205
623,375 Knutson Place,Room 1503,United States,Fargo,North Dakota,58122
624,31 Bunting Point,PO Box 22468,United States,Kalamazoo,Michigan,49006
625,592 Walton Plaza,Suite 28,United States,Shreveport,Louisiana,71130
626,6976 Vernon Terrace,PO Box 98928,United States,Melbourne,Florida,32919
627,035 Stoughton Plaza,Suite 7,United States,Springfield,Illinois,62776
628,7 Schmedeman Drive,Suite 83,United States,San Francisco,California,94137
629,17 Hanover Trail,PO Box 92518,United States,San Diego,California,92132
630,54 Memorial Road,Room 1164,United States,Bethlehem,Pennsylvania,18018
631,34 Raven Junction,Suite 3,United States,Kansas City,Kansas,66160
632,94 Ronald Regan Alley,Room 856,United States,Houston,Texas,77212
633,86739 Rockefeller Parkway,20th Floor,United States,Dallas,Texas,75216
634,0 Scofield Street,PO Box 98483,United States,Jefferson City,Missouri,65110
635,34 Fairview Drive,Suite 12,United States,Greensboro,North Carolina,27404
636,5795 Di Loreto Trail,Room 1688,United States,Lexington,Kentucky,40576
637,5504 Manufacturers Trail,Room 1169,United States,Philadelphia,Pennsylvania,19184
638,3 Steensland Alley,PO Box 93625,United States,Columbus,Ohio,43284
639,74386 Fuller Hill,17th Floor,United States,Chicago,Illinois,60686
640,66753 Grayhawk Center,Apt 1081,United States,Saint Joseph,Missouri,64504
641,10 Homewood Court,Suite 77,United States,Albuquerque,New Mexico,87201
642,45 Spaight Pass,,United States,New Haven,Connecticut,06533
643,34 Del Sol Drive,Suite 42,United States,Little Rock,Arkansas,72222
644,6 Bunting Court,Apt 885,United States,Phoenix,Arizona,85077
645,519 Loeprich Way,Room 950,United States,Minneapolis,Minnesota,55402
646,4 Bultman Alley,3rd Floor,United States,Columbus,Ohio,43268
647,705 Division Way,18th Floor,United States,Baton Rouge,Louisiana,70810
648,48 Hudson Parkway,PO Box 74405,United States,Baltimore,Maryland,21281
649,03 Sunnyside Court,PO Box 20175,United States,Washington,District of Columbia,20575
650,8017 Superior Pass,1st Floor,United States,New York City,New York,10029
651,867 Sloan Drive,PO Box 60909,United States,Everett,Washington,98206
652,350 Waxwing Hill,Suite 54,United States,Columbia,South Carolina,29220
653,00 Northwestern Drive,Apt 893,United States,Naples,Florida,34102
654,6 Miller Trail,PO Box 32974,United States,Atlanta,Georgia,30343
655,16 Eggendart Avenue,Suite 56,United States,Roanoke,Virginia,24034
656,7979 Bultman Plaza,Room 769,United States,Paterson,New Jersey,07544
657,1 Prairieview Trail,Room 1072,United States,Flint,Michigan,48555
658,37390 Westerfield Center,Apt 1219,United States,Fort Worth,Texas,76162
659,301 Forest Trail,19th Floor,United States,Topeka,Kansas,66606
660,1 Heffernan Park,Apt 330,United States,Waterloo,Iowa,50706
661,16456 Bonner Terrace,Room 1574,United States,Atlanta,Georgia,30351
662,02 Summit Way,Apt 1376,United States,Tampa,Florida,33686
663,3 Colorado Pass,5th Floor,United States,Seattle,Washington,98175
664,19 Judy Road,3rd Floor,United States,Evansville,Indiana,47737
665,0313 Schiller Crossing,PO Box 32681,United States,Akron,Ohio,44315
666,71442 Dovetail Court,Apt 1618,United States,Atlanta,Georgia,30311
667,027 Ohio Place,Room 1469,United States,Naples,Florida,34102
668,1 Dennis Pass,Suite 30,United States,San Jose,California,95173
669,10 Summit Point,Room 694,United States,Greenville,South Carolina,29615
670,11 Lighthouse Bay Way,Room 1200,United States,Long Beach,California,90847
671,05416 Forest Run Parkway,16th Floor,United States,Seattle,Washington,98140
672,54836 Morningstar Center,Apt 528,United States,Montgomery,Alabama,36114
673,6 Towne Lane,7th Floor,United States,Omaha,Nebraska,68197
674,09 Surrey Hill,Suite 11,United States,Salt Lake City,Utah,84115
675,42 Del Mar Way,PO Box 32669,United States,Sacramento,California,94250
676,95 Bartelt Terrace,Apt 278,United States,Philadelphia,Pennsylvania,19093
677,07 Green Way,Suite 61,United States,Pinellas Park,Florida,34665
678,83 Eastwood Park,6th Floor,United States,Buffalo,New York,14215
679,73 Twin Pines Circle,PO Box 260,United States,Columbia,Missouri,65218
680,11155 David Pass,Suite 45,United States,Washington,District of Columbia,20370
681,2 Northland Point,Apt 688,United States,Burbank,California,91520
682,57 Drewry Center,8th Floor,United States,Boca Raton,Florida,33499
683,48284 Sheridan Trail,Suite 68,United States,Charlotte,North Carolina,28256
684,752 Dayton Plaza,Room 1866,United States,San Diego,California,92170
685,54082 International Park,Suite 31,United States,Silver Spring,Maryland,20910
686,24 Tomscot Alley,PO Box 77542,United States,El Paso,Texas,88535
687,1413 Rusk Terrace,PO Box 56806,United States,Washington,District of Columbia,20508
688,9 Oneill Hill,7th Floor,United States,Washington,District of Columbia,20580
689,65956 Hanson Alley,PO Box 59103,United States,Oklahoma City,Oklahoma,73104
690,7 Bunker Hill Park,Room 721,United States,Lexington,Kentucky,40591
691,9126 Almo Pass,PO Box 33083,United States,Hartford,Connecticut,06145
692,8502 Killdeer Point,9th Floor,United States,Charlotte,North Carolina,28284
693,1466 Elmside Avenue,18th Floor,United States,Bowie,Maryland,20719
694,700 Meadow Vale Point,18th Floor,United States,Saint Petersburg,Florida,33710
695,34113 Elgar Street,Room 1911,United States,Simi Valley,California,93094
696,04 Mallard Hill,Apt 1241,United States,Bradenton,Florida,34282
697,01 Reinke Parkway,PO Box 45647,United States,Saint Petersburg,Florida,33705
698,6 Carpenter Alley,Suite 50,United States,Los Angeles,California,90076
699,525 Union Plaza,PO Box 20807,United States,Bakersfield,California,93381
700,6 Macpherson Way,PO Box 49142,United States,Albuquerque,New Mexico,87115
701,621 Meadow Ridge Trail,Suite 7,United States,Des Moines,Iowa,50347
702,2531 Briar Crest Center,Apt 958,United States,Austin,Texas,78737
703,354 Pennsylvania Trail,PO Box 40168,United States,Orlando,Florida,32885
704,92947 Monica Court,Room 390,United States,Albany,New York,12232
705,608 Red Cloud Drive,PO Box 85080,United States,Las Vegas,Nevada,89160
706,143 Stang Plaza,13th Floor,United States,New York City,New York,10045
707,22 Ridge Oak Circle,3rd Floor,United States,Peoria,Illinois,61656
708,545 Lakewood Hill,Room 1957,United States,Waterbury,Connecticut,06726
709,5571 Mcbride Pass,Suite 28,United States,New Haven,Connecticut,06533
710,252 Bowman Road,Room 1845,United States,Atlanta,Georgia,30358
711,3 Coolidge Circle,PO Box 1892,United States,Duluth,Georgia,30195
712,34 Troy Road,17th Floor,United States,Sacramento,California,95813
713,153 Spenser Way,PO Box 92387,United States,Atlanta,Georgia,30343
714,79208 Messerschmidt Parkway,Suite 7,United States,Pueblo,Colorado,81005
715,1 Leroy Way,Apt 1443,United States,Worcester,Massachusetts,01610
716,95567 Cherokee Plaza,Apt 1985,United States,Boston,Massachusetts,02114
717,32449 Victoria Place,Apt 454,United States,Springfield,Illinois,62723
718,2 Rusk Trail,Room 1972,United States,Fort Lauderdale,Florida,33325
719,039 Calypso Circle,Room 273,United States,Huntington,West Virginia,25721
720,21807 Shoshone Junction,PO Box 11773,United States,Saint Louis,Missouri,63169
721,970 Lillian Way,Suite 100,United States,Tucson,Arizona,85737
722,4 Fulton Parkway,PO Box 52292,United States,Houston,Texas,77276
723,89888 Anhalt Center,Room 1528,United States,Wilkes Barre,Pennsylvania,18768
724,29 Wayridge Court,13th Floor,United States,Aurora,Colorado,80015
725,51825 Farragut Place,PO Box 44098,United States,Minneapolis,Minnesota,55428
726,65377 Everett Parkway,PO Box 50957,United States,Brooklyn,New York,11231
727,7 Laurel Street,Apt 130,United States,Worcester,Massachusetts,01654
728,83 Sunnyside Road,Room 1765,United States,Orlando,Florida,32854
729,92544 Bayside Parkway,Apt 1022,United States,Santa Cruz,California,95064
730,011 Elgar Hill,6th Floor,United States,El Paso,Texas,79968
731,42459 Ridgeview Terrace,Suite 83,United States,Washington,District of Columbia,20057
732,54 Forest Street,Suite 83,United States,Alexandria,Virginia,22301
733,2177 Portage Circle,Suite 5,United States,San Bernardino,California,92405
734,7 Parkside Court,10th Floor,United States,Houston,Texas,77293
735,66103 Arrowood Road,Room 491,United States,Van Nuys,California,91406
736,64 Prentice Plaza,10th Floor,United States,Melbourne,Florida,32941
737,05 Schurz Terrace,Apt 1408,United States,Palo Alto,California,94302
738,41944 Colorado Park,Apt 1631,United States,Moreno Valley,California,92555
739,0 Northwestern Way,5th Floor,United States,Charlotte,North Carolina,28272
740,325 Anhalt Circle,Room 565,United States,Salt Lake City,Utah,84105
741,5627 Continental Trail,PO Box 16781,United States,El Paso,Texas,79968
742,8 Colorado Point,Suite 10,United States,Oklahoma City,Oklahoma,73119
743,135 3rd Crossing,Suite 34,United States,El Paso,Texas,79977
744,55324 Scoville Place,Suite 56,United States,Tampa,Florida,33647
745,720 5th Pass,Apt 1398,United States,Lexington,Kentucky,40505
746,42202 Hansons Circle,2nd Floor,United States,Erie,Pennsylvania,16534
747,0227 Green Ridge Avenue,4th Floor,United States,Boca Raton,Florida,33432
748,4 Westport Avenue,PO Box 91819,United States,Hartford,Connecticut,06152
749,297 Havey Terrace,Suite 59,United States,Green Bay,Wisconsin,54313
750,46 7th Point,Apt 721,United States,Pittsburgh,Pennsylvania,15274
751,9579 Johnson Lane,Room 570,United States,Fargo,North Dakota,58122
752,14207 Eggendart Street,Suite 78,United States,Redwood City,California,94064
753,2 Mitchell Point,Room 898,United States,Lexington,Kentucky,40576
754,7 Oak Valley Drive,Suite 71,United States,Abilene,Texas,79605
755,2 Northview Drive,PO Box 91088,United States,Virginia Beach,Virginia,23471
756,7 Grayhawk Lane,PO Box 22173,United States,Honolulu,Hawaii,96815
757,90809 La Follette Lane,Suite 94,United States,Charleston,South Carolina,29403
758,2404 Hanson Hill,Suite 92,United States,Los Angeles,California,90065
759,0 Veith Terrace,PO Box 80653,United States,Charleston,West Virginia,25389
760,22194 Nova Crossing,Suite 100,United States,Roanoke,Virginia,24029
761,50994 Sutherland Junction,Suite 76,United States,Boynton Beach,Florida,33436
762,3 Michigan Drive,Apt 1289,United States,Philadelphia,Pennsylvania,19104
763,0 Waywood Plaza,Suite 89,United States,Greenville,South Carolina,29605
764,0865 Dennis Park,Room 363,United States,Plano,Texas,75074
765,11036 Northridge Plaza,Apt 448,United States,Colorado Springs,Colorado,80915
766,0119 Fairfield Crossing,PO Box 47149,United States,Youngstown,Ohio,44511
767,60998 6th Junction,Suite 4,United States,Albuquerque,New Mexico,87180
768,0 Cascade Point,,United States,Knoxville,Tennessee,37939
769,0 Mockingbird Plaza,Apt 581,United States,Houston,Texas,77085
770,6 Continental Park,Room 1683,United States,Bethesda,Maryland,20816
771,9 Goodland Street,PO Box 51003,United States,Modesto,California,95354
772,7140 Swallow Alley,Suite 50,United States,Jacksonville,Florida,32209
773,64 Daystar Trail,PO Box 95196,United States,Ocala,Florida,34474
774,419 Novick Parkway,Apt 195,United States,Raleigh,North Carolina,27626
775,26 Golf View Junction,Apt 810,United States,Austin,Texas,78732
776,5 3rd Alley,Apt 1446,United States,Oklahoma City,Oklahoma,73167
777,611 Almo Center,Apt 662,United States,Huntsville,Alabama,35805
778,0 Village Green Plaza,Suite 51,United States,Dallas,Texas,75246
779,198 Holy Cross Place,Room 1124,United States,Scottsdale,Arizona,85271
780,4419 Menomonie Trail,PO Box 45585,United States,Salt Lake City,Utah,84199
781,729 Kenwood Drive,Suite 60,United States,El Paso,Texas,88530
782,88 Fuller Circle,18th Floor,United States,Pomona,California,91797
783,579 Algoma Junction,Apt 162,United States,Nashville,Tennessee,37215
784,10 Colorado Parkway,1st Floor,United States,Jamaica,New York,11470
785,24 Gina Crossing,Room 1713,United States,Seattle,Washington,98148
786,5 Dawn Park,Apt 1036,United States,Sacramento,California,94237
787,09731 Granby Road,2nd Floor,United States,San Francisco,California,94159
788,7 Upham Court,7th Floor,United States,Tucson,Arizona,85732
789,22 International Point,Apt 1867,United States,El Paso,Texas,88514
790,76248 Waxwing Hill,15th Floor,United States,New Bedford,Massachusetts,02745
791,7 Gale Terrace,PO Box 76755,United States,Anchorage,Alaska,99507
792,9041 Clyde Gallagher Road,PO Box 38727,United States,San Diego,California,92160
793,35845 Lyons Point,Room 152,United States,Amarillo,Texas,79182
794,3 American Center,Apt 1871,United States,Bronx,New York,10469
795,31 Bartelt Terrace,Room 1011,United States,Humble,Texas,77346
796,16 Atwood Hill,Apt 813,United States,Hyattsville,Maryland,20784
797,08495 Summerview Pass,PO Box 5588,United States,Atlanta,Georgia,30328
798,24 Bobwhite Hill,Apt 1201,United States,Saint Paul,Minnesota,55108
799,1261 Reindahl Lane,Apt 101,United States,Louisville,Kentucky,40225
800,7 Chive Drive,Apt 1816,United States,Dayton,Ohio,45419
801,635 Cottonwood Parkway,Room 205,United States,Dayton,Ohio,45408
802,1813 Corben Point,PO Box 69042,United States,Louisville,Kentucky,40250
803,46 Kensington Court,Apt 494,United States,Charlotte,North Carolina,28256
804,12 Farmco Street,Apt 465,United States,Bradenton,Florida,34205
805,6694 Warrior Parkway,,United States,Mobile,Alabama,36641
806,4 Center Pass,Apt 1913,United States,San Antonio,Texas,78225
807,54 Northfield Center,Room 278,United States,Long Beach,California,90810
808,54061 Dahle Circle,Apt 74,United States,Carson City,Nevada,89714
809,011 Emmet Road,Suite 51,United States,Young America,Minnesota,55564
810,011 Gateway Street,Apt 1647,United States,Wilmington,Delaware,19810
811,5 Rieder Court,PO Box 35313,United States,Springfield,Missouri,65810
812,27 Starling Pass,5th Floor,United States,Las Vegas,Nevada,89130
813,778 Butternut Road,Apt 1903,United States,San Jose,California,95123
814,80618 Moland Place,PO Box 9331,United States,Bradenton,Florida,34282
815,379 Harbort Drive,Suite 97,United States,Tuscaloosa,Alabama,35487
816,498 Trailsway Lane,Apt 449,United States,Tyler,Texas,75705
817,8 Thierer Junction,Apt 1749,United States,Tacoma,Washington,98411
818,826 Mcguire Crossing,10th Floor,United States,Baltimore,Maryland,21290
819,3 Garrison Trail,18th Floor,United States,South Lake Tahoe,California,96154
820,0 Hallows Crossing,Room 500,United States,Louisville,Kentucky,40210
821,7614 Maple Point,Apt 69,United States,Madison,Wisconsin,53710
822,62 Gerald Lane,PO Box 6357,United States,Springfield,Virginia,22156
823,03987 Merchant Parkway,7th Floor,United States,Huntington,West Virginia,25705
824,44770 Mariners Cove Place,Suite 93,United States,Pompano Beach,Florida,33069
825,947 Pawling Circle,PO Box 32343,United States,Lees Summit,Missouri,64082
826,58939 Meadow Valley Trail,Apt 1039,United States,Cambridge,Massachusetts,02142
827,90 Continental Street,Suite 48,United States,Fort Myers,Florida,33994
828,174 Burrows Circle,17th Floor,United States,Worcester,Massachusetts,01605
829,88354 Lerdahl Avenue,PO Box 45253,United States,Lincoln,Nebraska,68517
830,50 Dwight Crossing,Suite 94,United States,Jacksonville,Florida,32255
831,8439 Gale Center,Room 1510,United States,Chesapeake,Virginia,23324
832,17 Merry Court,Room 1223,United States,Phoenix,Arizona,85035
833,6 Milwaukee Point,Suite 23,United States,Sacramento,California,95894
834,05 Bunting Point,PO Box 89532,United States,Miami,Florida,33261
835,8 Pierstorff Trail,Suite 70,United States,Colorado Springs,Colorado,80930
836,1 Corscot Pass,Apt 1584,United States,Akron,Ohio,44305
837,31472 Vera Place,PO Box 13481,United States,Fort Worth,Texas,76134
838,4 High Crossing Lane,13th Floor,United States,Atlanta,Georgia,31132
839,2270 Novick Circle,Apt 1842,United States,West Palm Beach,Florida,33421
840,838 Thompson Trail,20th Floor,United States,Inglewood,California,90310
841,9481 Swallow Way,Room 353,United States,Kalamazoo,Michigan,49006
842,8 Pleasure Plaza,Room 682,United States,Lake Charles,Louisiana,70607
843,9528 Delladonna Trail,9th Floor,United States,Milwaukee,Wisconsin,53215
844,2 Schiller Place,Suite 63,United States,Washington,District of Columbia,20414
845,78890 Johnson Point,PO Box 72378,United States,Memphis,Tennessee,38104
846,58328 Nevada Park,PO Box 33768,United States,Joliet,Illinois,60435
847,955 Gulseth Parkway,11th Floor,United States,Midland,Texas,79705
848,3419 Northridge Park,Suite 52,United States,Cincinnati,Ohio,45243
849,8969 Cardinal Point,PO Box 51493,United States,Kansas City,Kansas,66160
850,148 Lakewood Crossing,Room 697,United States,El Paso,Texas,88535
851,6336 Becker Alley,Suite 97,United States,Fresno,California,93721
852,61 Eagle Crest Center,Suite 49,United States,Honolulu,Hawaii,96815
853,442 Blackbird Avenue,Room 1833,United States,Oklahoma City,Oklahoma,73152
854,92 Carioca Way,PO Box 5203,United States,Denver,Colorado,80235
855,37860 Mcbride Hill,PO Box 15415,United States,Charlotte,North Carolina,28284
856,51 2nd Street,Apt 1347,United States,Dallas,Texas,75310
857,2 Carpenter Center,PO Box 9901,United States,El Paso,Texas,88519
858,39271 Blue Bill Park Avenue,Suite 23,United States,Rochester,New York,14652
859,030 Schurz Hill,Room 1866,United States,Paterson,New Jersey,07544
860,8 Carpenter Crossing,Room 1311,United States,Las Vegas,Nevada,89130
861,8 Portage Drive,Apt 521,United States,Oklahoma City,Oklahoma,73179
862,88998 Oriole Lane,17th Floor,United States,Dallas,Texas,75251
863,530 Elgar Crossing,PO Box 11383,United States,Brooklyn,New York,11215
864,850 Truax Place,Room 877,United States,San Antonio,Texas,78220
865,3 Thompson Terrace,Suite 63,United States,Las Vegas,Nevada,89178
866,7192 Lerdahl Way,Suite 16,United States,Charlotte,North Carolina,28220
867,632 Pearson Plaza,5th Floor,United States,Baltimore,Maryland,21229
868,32 Moose Road,19th Floor,United States,Colorado Springs,Colorado,80905
869,59921 Russell Junction,4th Floor,United States,Homestead,Florida,33034
870,46431 Utah Crossing,5th Floor,United States,Baltimore,Maryland,21282
871,065 Buena Vista Terrace,Room 45,United States,Ridgely,Maryland,21684
872,8153 Kim Avenue,Room 1073,United States,Abilene,Texas,79605
873,61 Clarendon Lane,Room 210,United States,Bronx,New York,10469
874,663 Merry Parkway,Room 1929,United States,Los Angeles,California,90015
875,8330 Bartelt Avenue,10th Floor,United States,Jacksonville,Florida,32215
876,993 Trailsway Trail,Suite 70,United States,Norcross,Georgia,30092
877,63 Menomonie Point,Room 222,United States,Honolulu,Hawaii,96805
878,4226 Carberry Alley,Room 379,United States,Oakland,California,94660
879,5 Towne Plaza,PO Box 48283,United States,Amarillo,Texas,79171
880,4969 Jenna Terrace,Room 340,United States,San Diego,California,92105
881,41 American Ash Circle,6th Floor,United States,Saint Louis,Missouri,63104
882,03299 Reinke Trail,Suite 10,United States,Columbia,South Carolina,29215
883,19400 Wayridge Center,Suite 96,United States,Louisville,Kentucky,40266
884,46790 Sutherland Trail,Apt 1677,United States,Tucson,Arizona,85743
885,047 Delladonna Avenue,PO Box 32951,United States,Dallas,Texas,75392
886,37605 Holy Cross Alley,Suite 21,United States,Dayton,Ohio,45426
887,46256 Calypso Lane,20th Floor,United States,Pueblo,Colorado,81015
888,37 Mallory Street,Room 1882,United States,Los Angeles,California,90060
889,392 Oak Valley Crossing,Apt 1383,United States,Corpus Christi,Texas,78405
890,2 7th Place,Room 1257,United States,Tacoma,Washington,98417
891,9 Hanson Avenue,Suite 20,United States,Garden Grove,California,92844
892,58272 Manufacturers Way,16th Floor,United States,Denver,Colorado,80235
893,0 Delladonna Trail,3rd Floor,United States,Minneapolis,Minnesota,55412
894,4 Eggendart Pass,Apt 359,United States,Oklahoma City,Oklahoma,73147
895,72247 Graedel Terrace,Apt 914,United States,Springfield,Massachusetts,01152
896,83 Spohn Place,Room 1252,United States,College Station,Texas,77844
897,4 Bluejay Point,PO Box 22607,United States,Washington,District of Columbia,20067
898,26 Debs Road,PO Box 44103,United States,Tulsa,Oklahoma,74141
899,69541 Monument Alley,Suite 95,United States,Minneapolis,Minnesota,55470
900,5 Bartillon Junction,,United States,Bismarck,North Dakota,58505
901,09776 Clarendon Plaza,PO Box 617,United States,Sarasota,Florida,34238
902,21 Pine View Road,PO Box 11652,United States,Atlanta,Georgia,30340
903,833 3rd Plaza,19th Floor,United States,Tacoma,Washington,98411
904,738 Granby Trail,PO Box 47812,United States,Philadelphia,Pennsylvania,19120
905,38229 Petterle Alley,Apt 83,United States,Jackson,Tennessee,38308
906,172 Dottie Road,3rd Floor,United States,Baltimore,Maryland,21282
907,18115 Pine View Junction,Suite 55,United States,Indianapolis,Indiana,46221
908,19475 Red Cloud Parkway,1st Floor,United States,Houston,Texas,77293
909,61512 Bunker Hill Avenue,Apt 472,United States,Los Angeles,California,90010
910,4 Clyde Gallagher Place,13th Floor,United States,Bozeman,Montana,59771
911,2 Sauthoff Crossing,Suite 5,United States,Washington,District of Columbia,20226
912,392 Village Green Point,12th Floor,United States,Anderson,Indiana,46015
913,202 Coleman Road,PO Box 18145,United States,Cincinnati,Ohio,45208
914,9 Jenna Avenue,Suite 27,United States,New York City,New York,10203
915,418 Novick Parkway,Apt 366,United States,Washington,District of Columbia,20231
916,156 Cascade Park,PO Box 87091,United States,Saint Cloud,Minnesota,56398
917,1669 Meadow Ridge Pass,PO Box 84177,United States,Youngstown,Ohio,44511
918,50067 Schiller Plaza,PO Box 45839,United States,Atlanta,Georgia,31106
919,783 Jackson Drive,Apt 334,United States,San Diego,California,92132
920,031 Hazelcrest Park,Suite 56,United States,Miami,Florida,33142
921,97 Manitowish Road,Suite 23,United States,Birmingham,Alabama,35244
922,03 Glendale Trail,PO Box 50185,United States,Miami,Florida,33111
923,8 Lien Plaza,PO Box 91524,United States,Portland,Oregon,97286
924,59037 Meadow Vale Pass,Room 358,United States,Longview,Texas,75605
925,89106 Menomonie Lane,Apt 1771,United States,Bradenton,Florida,34210
926,9770 Troy Avenue,Room 1239,United States,New York City,New York,10045
927,36 Memorial Parkway,Apt 1425,United States,Philadelphia,Pennsylvania,19184
928,96030 Sommers Parkway,6th Floor,United States,Minneapolis,Minnesota,55487
929,89 Claremont Hill,4th Floor,United States,Reno,Nevada,89519
930,39 Bunker Hill Parkway,5th Floor,United States,Salem,Oregon,97306
931,0448 Golf View Parkway,6th Floor,United States,Macon,Georgia,31205
932,10 6th Crossing,Room 988,United States,Indianapolis,Indiana,46266
933,1403 Grayhawk Street,Suite 23,United States,Portland,Oregon,97206
934,57101 Novick Lane,PO Box 17223,United States,Washington,District of Columbia,20520
935,41 Shoshone Court,Room 1660,United States,Rockford,Illinois,61110
936,4566 Lotheville Park,PO Box 32029,United States,Oklahoma City,Oklahoma,73173
937,08657 Charing Cross Pass,11th Floor,United States,Corpus Christi,Texas,78470
938,6 Transport Avenue,PO Box 28637,United States,Indianapolis,Indiana,46202
939,782 Bellgrove Terrace,,United States,Newport Beach,California,92662
940,6 Wayridge Point,Suite 27,United States,Bloomington,Indiana,47405
941,23 Michigan Avenue,20th Floor,United States,Miami,Florida,33158
942,23 Lerdahl Road,Apt 1655,United States,Midland,Michigan,48670
943,787 Mallory Pass,10th Floor,United States,El Paso,Texas,79984
944,49669 Blue Bill Park Point,Suite 25,United States,El Paso,Texas,88553
945,444 Merry Avenue,Apt 1229,United States,Evanston,Illinois,60208
946,98270 Carioca Avenue,Suite 9,United States,San Antonio,Texas,78255
947,39826 Nevada Center,Suite 72,United States,Toledo,Ohio,43699
948,112 Oak Circle,Room 476,United States,Denver,Colorado,80235
949,607 Doe Crossing Alley,20th Floor,United States,Tallahassee,Florida,32304
950,93150 Myrtle Street,Room 454,United States,Washington,District of Columbia,20470
951,874 Kipling Plaza,Room 396,United States,San Francisco,California,94142
952,548 Westridge Pass,Suite 2,United States,Knoxville,Tennessee,37919
953,7798 Schmedeman Hill,PO Box 72436,United States,Arlington,Virginia,22212
954,533 Gale Drive,Suite 66,United States,New Brunswick,New Jersey,08922
955,647 Forest Pass,Suite 2,United States,El Paso,Texas,79940
956,8 Karstens Alley,Apt 584,United States,San Jose,California,95138
957,0 Northwestern Hill,Room 730,United States,North Hollywood,California,91606
958,46069 Anniversary Crossing,16th Floor,United States,Tacoma,Washington,98447
959,6 Dwight Trail,Room 1980,United States,Houston,Texas,77040
960,6 Westend Terrace,Suite 54,United States,Cleveland,Ohio,44197
961,9 Memorial Parkway,Apt 782,United States,Salt Lake City,Utah,84140
962,48885 North Avenue,Suite 10,United States,Nashville,Tennessee,37228
963,8262 Carpenter Center,Suite 41,United States,Austin,Texas,78732
964,4 Elmside Way,Room 214,United States,Falls Church,Virginia,22047
965,69 Morningstar Parkway,Suite 27,United States,Ann Arbor,Michigan,48107
966,5 Graceland Street,PO Box 81482,United States,Fargo,North Dakota,58106
967,1 Fieldstone Circle,9th Floor,United States,Naples,Florida,34108
968,7789 Washington Plaza,Room 250,United States,Portland,Oregon,97296
969,63 Kensington Center,Suite 24,United States,Columbus,Mississippi,39705
970,5 Burning Wood Way,Apt 1937,United States,Seattle,Washington,98104
971,4028 Kropf Center,Room 1489,United States,Sacramento,California,94207
972,79850 Trailsway Center,Suite 73,United States,Vancouver,Washington,98664
973,933 Knutson Point,Apt 671,United States,Brea,California,92822
974,027 Lakeland Plaza,Room 1211,United States,Memphis,Tennessee,38114
975,6770 Bashford Place,PO Box 40192,United States,Sacramento,California,95833
976,50275 Eggendart Crossing,Suite 27,United States,Springfield,Illinois,62723
977,6 Holmberg Trail,PO Box 89489,United States,Orange,California,92668
978,0370 Buhler Hill,Apt 1859,United States,Macon,Georgia,31205
979,8 Oneill Terrace,Suite 77,United States,Rochester,Minnesota,55905
980,97 Jay Crossing,Room 372,United States,Portland,Maine,04109
981,7141 Thompson Plaza,4th Floor,United States,Waterbury,Connecticut,06705
982,2 Gale Crossing,Room 616,United States,Columbus,Ohio,43284
983,3762 Canary Circle,Room 498,United States,Racine,Wisconsin,53405
984,16228 South Junction,Apt 805,United States,Huntington,West Virginia,25775
985,917 Texas Circle,PO Box 16068,United States,Corona,California,92878
986,4 Pankratz Plaza,PO Box 69120,United States,Fargo,North Dakota,58122
987,6 Graceland Parkway,Room 1040,United States,Gulfport,Mississippi,39505
988,67606 Magdeline Pass,Apt 562,United States,Springfield,Massachusetts,01114
989,077 Oakridge Drive,Room 394,United States,Cincinnati,Ohio,45213
990,8575 Clove Plaza,,United States,Reno,Nevada,89550
991,8 Sullivan Court,,United States,Tallahassee,Florida,32304
992,61 Del Mar Crossing,Room 691,United States,Boise,Idaho,83711
993,90954 Mosinee Point,Apt 1638,United States,Irving,Texas,75062
994,5113 Mallard Pass,Suite 61,United States,Gary,Indiana,46406
995,52993 Green Avenue,Apt 1001,United States,Cleveland,Ohio,44111
996,0814 Shoshone Circle,Suite 76,United States,Milwaukee,Wisconsin,53263
997,517 Sullivan Parkway,Suite 52,United States,Colorado Springs,Colorado,80920
998,38955 Luster Terrace,2nd Floor,United States,Rockford,Illinois,61105
999,34084 6th Alley,PO Box 2561,United States,San Angelo,Texas,76905
1000,8 Debs Terrace,PO Box 45107,United States,Grand Junction,Colorado,81505
